{"type": "FeatureCollection", "features": [ {"type": "Feature", "properties": {"norad_id": 32110, "name": "FENGYUN 1C DEB", "group": "fengyun-1c-debris", "lat": -3.3878999532131275, "lon": 150.89489512046296, "alt_km": 777.3788018685018, "timestamp": "2025-12-07T14:37:05.490058+00:00", "meta": {"OBJECT_NAME": "FENGYUN 1C DEB", "OBJECT_ID": "1999-025CRC", "EPOCH": "2025-12-05T23:00:07.012800", "MEAN_MOTION": 14.28821693, "ECCENTRICITY": 0.00331812, "INCLINATION": 99.5433, "RA_OF_ASC_NODE": 148.5199, "ARG_OF_PERICENTER": 26.6073, "MEAN_ANOMALY": 124.1896, "EPHEMERIS_TYPE": 0, "CLASSIFICATION_TYPE": "U", "NORAD_CAT_ID": 32110, "ELEMENT_SET_NO": 999, "REV_AT_EPOCH": 64291, "BSTAR": 0.002644109, "MEAN_MOTION_DOT": 6.66e-05, "MEAN_MOTION_DDOT": 0}, "tle": {"line1": "1 32110U 99025CRC 25339.95841450  .00006660  00000+0  26441-2 0  9996", "line2": "2 32110  99.5433 148.5199 0033181  26.6073 124.1896 14.28821693642916"}}, "geometry": {"type": "Point", "coordinates": [150.89489512046296, -3.3878999532131275]}}, {"type": "Feature", "properties": {"norad_id": 32111, "name": "FENGYUN 1C DEB", "group": "fengyun-1c-debris", "lat": -49.59642926788, "lon": -8.470004100677917, "alt_km": 791.7683644956815, "timestamp": "2025-12-07T14:37:05.490068+00:00", "meta": {"OBJECT_NAME": "FENGYUN 1C DEB", "OBJECT_ID": "1999-025CRD", "EPOCH": "2025-12-05T11:34:27.816096", "MEAN_MOTION": 14.31532097, "ECCENTRICITY": 0.01193698, "INCLINATION": 98.4434, "RA_OF_ASC_NODE": 339.4114, "ARG_OF_PERICENTER": 226.4775, "MEAN_ANOMALY": 287.5453, "EPHEMERIS_TYPE": 0, "CLASSIFICATION_TYPE": "U", "NORAD_CAT_ID": 32111, "ELEMENT_SET_NO": 999, "REV_AT_EPOCH": 95927, "BSTAR": 0.00038191668, "MEAN_MOTION_DOT": 1.053e-05, "MEAN_MOTION_DDOT": 0}, "tle": {"line1": "1 32111U 99025CRD 25339.48226639  .00001053  00000+0  38192-3 0  9999", "line2": "2 32111  98.4434 339.4114 0119369 226.4775 287.5453 14.31532097959270"}}, "geometry": {"type": "Point", "coordinates": [-8.470004100677917, -49.59642926788]}}, {"type": "Feature", "properties": {"norad_id": 32113, "name": "FENGYUN 1C DEB", "group": "fengyun-1c-debris", "lat": 29.877302253863828, "lon": -158.26783663449007, "alt_km": 910.3234096174156, "timestamp": "2025-12-07T14:37:05.490078+00:00", "meta": {"OBJECT_NAME": "FENGYUN 1C DEB", "OBJECT_ID": "1999-025CRF", "EPOCH": "2025-12-06T20:39:32.228352", "MEAN_MOTION": 13.94530668, "ECCENTRICITY": 0.02377827, "INCLINATION": 99.0267, "RA_OF_ASC_NODE": 15.7602, "ARG_OF_PERICENTER": 242.7405, "MEAN_ANOMALY": 114.9355, "EPHEMERIS_TYPE": 0, "CLASSIFICATION_TYPE": "U", "NORAD_CAT_ID": 32113, "ELEMENT_SET_NO": 999, "REV_AT_EPOCH": 62804, "BSTAR": 0.0013373683, "MEAN_MOTION_DOT": 2.214e-05, "MEAN_MOTION_DDOT": 0}, "tle": {"line1": "1 32113U 99025CRF 25340.86078968  .00002214  00000+0  13374-2 0  9999", "line2": "2 32113  99.0267  15.7602 0237782 242.7405 114.9355 13.94530668628042"}}, "geometry": {"type": "Point", "coordinates": [-158.26783663449007, 29.877302253863828]}}, {"type": "Feature", "properties": {"norad_id": 32114, "name": "FENGYUN 1C DEB", "group": "fengyun-1c-debris", "lat": -19.00289236928412, "lon": -85.97290841935482, "alt_km": 675.0074282838896, "timestamp": "2025-12-07T14:37:05.490089+00:00", "meta": {"OBJECT_NAME": "FENGYUN 1C DEB", "OBJECT_ID": "1999-025CRG", "EPOCH": "2025-12-06T13:19:21.641376", "MEAN_MOTION": 14.76489439, "ECCENTRICITY": 0.00447682, "INCLINATION": 99.9287, "RA_OF_ASC_NODE": 96.1919, "ARG_OF_PERICENTER": 3.5911, "MEAN_ANOMALY": 356.5605, "EPHEMERIS_TYPE": 0, "CLASSIFICATION_TYPE": "U", "NORAD_CAT_ID": 32114, "ELEMENT_SET_NO": 999, "REV_AT_EPOCH": 65638, "BSTAR": 0.0040574802, "MEAN_MOTION_DOT": 0.0002877, "MEAN_MOTION_DDOT": 0}, "tle": {"line1": "1 32114U 99025CRG 25340.55511159  .00028770  00000+0  40575-2 0  9998", "line2": "2 32114  99.9287  96.1919 0044768   3.5911 356.5605 14.76489439656383"}}, "geometry": {"type": "Point", "coordinates": [-85.97290841935482, -19.00289236928412]}}, {"type": "Feature", "properties": {"norad_id": 32117, "name": "FENGYUN 1C DEB", "group": "fengyun-1c-debris", "lat": -80.50762578007998, "lon": 92.05652082810379, "alt_km": 839.1716062128862, "timestamp": "2025-12-07T14:37:05.490099+00:00", "meta": {"OBJECT_NAME": "FENGYUN 1C DEB", "OBJECT_ID": "1999-025CRK", "EPOCH": "2025-12-06T08:40:01.321824", "MEAN_MOTION": 14.23900469, "ECCENTRICITY": 0.00280103, "INCLINATION": 98.612, "RA_OF_ASC_NODE": 25.8287, "ARG_OF_PERICENTER": 109.8195, "MEAN_ANOMALY": 250.6008, "EPHEMERIS_TYPE": 0, "CLASSIFICATION_TYPE": "U", "NORAD_CAT_ID": 32117, "ELEMENT_SET_NO": 999, "REV_AT_EPOCH": 94706, "BSTAR": 0.0019053006, "MEAN_MOTION_DOT": 4.343e-05, "MEAN_MOTION_DDOT": 0}, "tle": {"line1": "1 32117U 99025CRK 25340.36112641  .00004343  00000+0  19053-2 0  9990", "line2": "2 32117  98.6120  25.8287 0028010 109.8195 250.6008 14.23900469947063"}}, "geometry": {"type": "Point", "coordinates": [92.05652082810379, -80.50762578007998]}}, {"type": "Feature", "properties": {"norad_id": 32119, "name": "FENGYUN 1C DEB", "group": "fengyun-1c-debris", "lat": -33.876880975838624, "lon": -149.59238093533338, "alt_km": 900.8806432207266, "timestamp": "2025-12-07T14:37:05.490109+00:00", "meta": {"OBJECT_NAME": "FENGYUN 1C DEB", "OBJECT_ID": "1999-025CRM", "EPOCH": "2025-12-05T08:00:17.816256", "MEAN_MOTION": 14.02791969, "ECCENTRICITY": 0.00850793, "INCLINATION": 99.888, "RA_OF_ASC_NODE": 201.214, "ARG_OF_PERICENTER": 72.2181, "MEAN_ANOMALY": 288.8243, "EPHEMERIS_TYPE": 0, "CLASSIFICATION_TYPE": "U", "NORAD_CAT_ID": 32119, "ELEMENT_SET_NO": 999, "REV_AT_EPOCH": 93624, "BSTAR": 0.0014372, "MEAN_MOTION_DOT": 2.245e-05, "MEAN_MOTION_DDOT": 0}, "tle": {"line1": "1 32119U 99025CRM 25339.33353954  .00002245  00000+0  14372-2 0  9999", "line2": "2 32119  99.8880 201.2140 0085079  72.2181 288.8243 14.02791969936247"}}, "geometry": {"type": "Point", "coordinates": [-149.59238093533338, -33.876880975838624]}}, {"type": "Feature", "properties": {"norad_id": 32123, "name": "FENGYUN 1C DEB", "group": "fengyun-1c-debris", "lat": -55.18570571244911, "lon": -44.08324694191604, "alt_km": 660.5540273166289, "timestamp": "2025-12-07T14:37:05.490119+00:00", "meta": {"OBJECT_NAME": "FENGYUN 1C DEB", "OBJECT_ID": "1999-025CRR", "EPOCH": "2025-12-06T06:52:18.378912", "MEAN_MOTION": 14.61431053, "ECCENTRICITY": 0.01599151, "INCLINATION": 98.9415, "RA_OF_ASC_NODE": 147.5731, "ARG_OF_PERICENTER": 313.0256, "MEAN_ANOMALY": 169.6117, "EPHEMERIS_TYPE": 0, "CLASSIFICATION_TYPE": "U", "NORAD_CAT_ID": 32123, "ELEMENT_SET_NO": 999, "REV_AT_EPOCH": 71280, "BSTAR": 0.00044565052, "MEAN_MOTION_DOT": 2.581e-05, "MEAN_MOTION_DDOT": 0}, "tle": {"line1": "1 32123U 99025CRR 25340.28632383  .00002581  00000+0  44565-3 0  9997", "line2": "2 32123  98.9415 147.5731 0159915 313.0256 169.6117 14.61431053712804"}}, "geometry": {"type": "Point", "coordinates": [-44.08324694191604, -55.18570571244911]}}, {"type": "Feature", "properties": {"norad_id": 32125, "name": "FENGYUN 1C DEB", "group": "fengyun-1c-debris", "lat": -46.1800904874865, "lon": 131.81365318856268, "alt_km": 715.0143950278152, "timestamp": "2025-12-07T14:37:05.490129+00:00", "meta": {"OBJECT_NAME": "FENGYUN 1C DEB", "OBJECT_ID": "1999-025CRT", "EPOCH": "2025-11-30T16:29:46.563072", "MEAN_MOTION": 14.69027096, "ECCENTRICITY": 0.01775541, "INCLINATION": 99.061, "RA_OF_ASC_NODE": 313.7121, "ARG_OF_PERICENTER": 0.429, "MEAN_ANOMALY": 359.7033, "EPHEMERIS_TYPE": 0, "CLASSIFICATION_TYPE": "U", "NORAD_CAT_ID": 32125, "ELEMENT_SET_NO": 999, "REV_AT_EPOCH": 70346, "BSTAR": 0.0033542642, "MEAN_MOTION_DOT": 0.00025065, "MEAN_MOTION_DDOT": 0}, "tle": {"line1": "1 32125U 99025CRT 25334.68734448  .00025065  00000+0  33543-2 0  9996", "line2": "2 32125  99.0610 313.7121 0177554   0.4290 359.7033 14.69027096703466"}}, "geometry": {"type": "Point", "coordinates": [131.81365318856268, -46.1800904874865]}}, {"type": "Feature", "properties": {"norad_id": 32126, "name": "FENGYUN 1C DEB", "group": "fengyun-1c-debris", "lat": -72.73467128342222, "lon": -110.87048479065679, "alt_km": 853.4054260512012, "timestamp": "2025-12-07T14:37:05.490140+00:00", "meta": {"OBJECT_NAME": "FENGYUN 1C DEB", "OBJECT_ID": "1999-025CRU", "EPOCH": "2025-12-06T08:53:24.763200", "MEAN_MOTION": 13.56781001, "ECCENTRICITY": 0.02813956, "INCLINATION": 99.1098, "RA_OF_ASC_NODE": 216.9018, "ARG_OF_PERICENTER": 271.8645, "MEAN_ANOMALY": 85.0292, "EPHEMERIS_TYPE": 0, "CLASSIFICATION_TYPE": "U", "NORAD_CAT_ID": 32126, "ELEMENT_SET_NO": 999, "REV_AT_EPOCH": 61628, "BSTAR": 0.0020875862, "MEAN_MOTION_DOT": 1.869e-05, "MEAN_MOTION_DDOT": 0}, "tle": {"line1": "1 32126U 99025CRU 25340.37042550  .00001869  00000+0  20876-2 0  9997", "line2": "2 32126  99.1098 216.9018 0281395 271.8645  85.0292 13.56781001616281"}}, "geometry": {"type": "Point", "coordinates": [-110.87048479065679, -72.73467128342222]}}, {"type": "Feature", "properties": {"norad_id": 32128, "name": "FENGYUN 1C DEB", "group": "fengyun-1c-debris", "lat": -73.4585589798887, "lon": 175.54897327699067, "alt_km": 646.6451656338168, "timestamp": "2025-12-07T14:37:05.490151+00:00", "meta": {"OBJECT_NAME": "FENGYUN 1C DEB", "OBJECT_ID": "1999-025CRW", "EPOCH": "2025-12-06T09:49:24.903264", "MEAN_MOTION": 13.94188504, "ECCENTRICITY": 0.03967892, "INCLINATION": 99.0323, "RA_OF_ASC_NODE": 26.7544, "ARG_OF_PERICENTER": 240.2207, "MEAN_ANOMALY": 115.894, "EPHEMERIS_TYPE": 0, "CLASSIFICATION_TYPE": "U", "NORAD_CAT_ID": 32128, "ELEMENT_SET_NO": 999, "REV_AT_EPOCH": 62897, "BSTAR": 0.0011979648, "MEAN_MOTION_DOT": 3.014e-05, "MEAN_MOTION_DDOT": 0}, "tle": {"line1": "1 32128U 99025CRW 25340.40931601  .00003014  00000+0  11980-2 0  9997", "line2": "2 32128  99.0323  26.7544 0396789 240.2207 115.8940 13.94188504628974"}}, "geometry": {"type": "Point", "coordinates": [175.54897327699067, -73.4585589798887]}}]}